KUIPER-00079            
1 64826U 25151L   26008.16668980 -.00034036  00000+0 -44395-2 0  9994
2 64826  51.8970 208.2021 0003535  72.6815 185.2987 14.80103024  4836
KUIPER-00080            
1 64827U 25151M   26007.94934924 -.00008196  00000+0 -10477-2 0  9996
2 64827  51.8984 209.1673 0006366  61.9056 298.2550 14.79900415 26313
KUIPER-00082            
1 64828U 25151N   26007.79404822  .00016906  00000+0  22434-2 0  9991
2 64828  51.9001 197.3728 0002644 112.9315 247.1927 14.79888706 26469
KUIPER-00083            
1 64829U 25151P   26008.16668980 -.00029545  00000+0 -38680-2 0  9996
2 64829  51.8986 203.2180 0003926  82.5692 147.3548 14.79877117  5443
KUIPER-00084            
1 64830U 25151Q   26007.97779365  .00002588  00000+0  36816-3 0  9992
2 64830  51.8986 214.0388 0008926  23.8767 336.2607 14.79961278 26249
KUIPER-00085            
1 64831U 25151R   26007.82779023 -.00004894  00000+0 -61269-3 0  9992
2 64831  51.9029 197.2411 0007862  66.2725 293.9061 14.79943757 26460
KUIPER-00086            
1 64832U 25151S   26007.81704520  .00002711  00000+0  38451-3 0  9993
2 64832  51.9006 207.2723 0011225  42.9042 317.2794 14.79931052 26328
KUIPER-00087            
1 64833U 25151T   26007.76841279  .00002420  00000+0  34609-3 0  9999
2 64833  51.8984 189.9759 0000656  95.2071 264.8966 14.79955345 26551
